{
  "type": "FeatureCollection",
  "features": [
    {
      "type": "Feature",
      "properties": {
        "norad_id": 34036,
        "name": "COSMOS 2251 DEB",
        "group": "cosmos-2251-debris",
        "lat": -40.23672280260036,
        "lon": -18.96240380008814,
        "alt_km": 581.8445643264222,
        "timestamp": "2025-12-13T20:38:51.401299+00:00",
        "meta_object_name": "COSMOS 2251 DEB",
        "meta_object_id": "1993-036HX",
        "meta_epoch": "2025-12-13T05:12:15.436512",
        "meta_mean_motion": 14.95043023,
        "meta_eccentricity": 0.0012215,
        "meta_inclination": 74.0196,
        "meta_ra_of_asc_node": 148.3028,
        "meta_arg_of_pericenter": 181.077,
        "meta_mean_anomaly": 179.039,
        "meta_ephemeris_type": 0,
        "meta_classification_type": "U",
        "meta_norad_cat_id": 34036,
        "meta_element_set_no": 999,
        "meta_rev_at_epoch": 88577,
        "meta_bstar": 0.0071125546,
        "meta_mean_motion_dot": 0.00078839,
        "meta_mean_motion_ddot": 0,
        "tle_line1": "1 34036U 93036HX  25347.21684533  .00078839  00000+0  71126-2 0  9993",
        "tle_line2": "2 34036  74.0196 148.3028 0012215 181.0770 179.0390 14.95043023885771"
      },
      "geometry": {
        "type": "Point",
        "coordinates": [
          -18.96240380008814,
          -40.23672280260036
        ]
      }
    },
    {
      "type": "Feature",
      "properties": {
        "norad_id": 34037,
        "name": "COSMOS 2251 DEB",
        "group": "cosmos-2251-debris",
        "lat": 36.041856850907564,
        "lon": 60.401591402853484,
        "alt_km": 754.7365876449339,
        "timestamp": "2025-12-13T20:38:51.401310+00:00",
        "meta_object_name": "COSMOS 2251 DEB",
        "meta_object_id": "1993-036HY",
        "meta_epoch": "2025-12-12T21:02:35.559744",
        "meta_mean_motion": 14.34666632,
        "meta_eccentricity": 0.00519656,
        "meta_inclination": 74.0523,
        "meta_ra_of_asc_node": 50.1916,
        "meta_arg_of_pericenter": 100.1547,
        "meta_mean_anomaly": 260.5472,
        "meta_ephemeris_type": 0,
        "meta_classification_type": "U",
        "meta_norad_cat_id": 34037,
        "meta_element_set_no": 999,
        "meta_rev_at_epoch": 87719,
        "meta_bstar": 0.00071595016,
        "meta_mean_motion_dot": 2.032e-05,
        "meta_mean_motion_ddot": 0,
        "tle_line1": "1 34037U 93036HY  25346.87680046  .00002032  00000+0  71595-3 0  9993",
        "tle_line2": "2 34037  74.0523  50.1916 0051965 100.1547 260.5472 14.34666632877195"
      },
      "geometry": {
        "type": "Point",
        "coordinates": [
          60.401591402853484,
          36.041856850907564
        ]
      }
    },
    {
      "type": "Feature",
      "properties": {
        "norad_id": 34040,
        "name": "COSMOS 2251 DEB",
        "group": "cosmos-2251-debris",
        "lat": 20.38094805642267,
        "lon": 70.14901720493454,
        "alt_km": 752.2664841857004,
        "timestamp": "2025-12-13T20:38:51.401320+00:00",
        "meta_object_name": "COSMOS 2251 DEB",
        "meta_object_id": "1993-036JB",
        "meta_epoch": "2025-12-13T06:30:53.256672",
        "meta_mean_motion": 13.68375582,
        "meta_eccentricity": 0.03430517,
        "meta_inclination": 73.9559,
        "meta_ra_of_asc_node": 64.9847,
        "meta_arg_of_pericenter": 18.2433,
        "meta_mean_anomaly": 343.0638,
        "meta_ephemeris_type": 0,
        "meta_classification_type": "U",
        "meta_norad_cat_id": 34040,
        "meta_element_set_no": 999,
        "meta_rev_at_epoch": 83607,
        "meta_bstar": 0.00063081565,
        "meta_mean_motion_dot": 7.91e-06,
        "meta_mean_motion_ddot": 0,
        "tle_line1": "1 34040U 93036JB  25347.27144973  .00000791  00000+0  63082-3 0  9998",
        "tle_line2": "2 34040  73.9559  64.9847 0343051  18.2433 343.0638 13.68375582836075"
      },
      "geometry": {
        "type": "Point",
        "coordinates": [
          70.14901720493454,
          20.38094805642267
        ]
      }
    },
    {
      "type": "Feature",
      "properties": {
        "norad_id": 34045,
        "name": "COSMOS 2251 DEB",
        "group": "cosmos-2251-debris",
        "lat": 71.60205668684156,
        "lon": 8.145345140316698,
        "alt_km": 758.7754684399288,
        "timestamp": "2025-12-13T20:38:51.401330+00:00",
        "meta_object_name": "COSMOS 2251 DEB",
        "meta_object_id": "1993-036JG",
        "meta_epoch": "2025-12-13T07:24:19.000800",
        "meta_mean_motion": 14.34069421,
        "meta_eccentricity": 0.00256833,
        "meta_inclination": 74.0392,
        "meta_ra_of_asc_node": 309.7906,
        "meta_arg_of_pericenter": 33.0733,
        "meta_mean_anomaly": 80.0464,
        "meta_ephemeris_type": 0,
        "meta_classification_type": "U",
        "meta_norad_cat_id": 34045,
        "meta_element_set_no": 999,
        "meta_rev_at_epoch": 88041,
        "meta_bstar": 0.00015848552,
        "meta_mean_motion_dot": 4.19e-06,
        "meta_mean_motion_ddot": 0,
        "tle_line1": "1 34045U 93036JG  25347.30855325  .00000419  00000+0  15849-3 0  9992",
        "tle_line2": "2 34045  74.0392 309.7906 0025683  33.0733  80.0464 14.34069421880417"
      },
      "geometry": {
        "type": "Point",
        "coordinates": [
          8.145345140316698,
          71.60205668684156
        ]
      }
    },
    {
      "type": "Feature",
      "properties": {
        "norad_id": 34046,
        "name": "COSMOS 2251 DEB",
        "group": "cosmos-2251-debris",
        "lat": 56.49636855878886,
        "lon": 162.76774628887551,
        "alt_km": 684.6348869986059,
        "timestamp": "2025-12-13T20:38:51.401341+00:00",
        "meta_object_name": "COSMOS 2251 DEB",
        "meta_object_id": "1993-036JH",
        "meta_epoch": "2025-12-13T03:47:00.288672",
        "meta_mean_motion": 14.46478687,
        "meta_eccentricity": 0.00744696,
        "meta_inclination": 74.0402,
        "meta_ra_of_asc_node": 9.6927,
        "meta_arg_of_pericenter": 92.9866,
        "meta_mean_anomaly": 328.829,
        "meta_ephemeris_type": 0,
        "meta_classification_type": "U",
        "meta_norad_cat_id": 34046,
        "meta_element_set_no": 999,
        "meta_rev_at_epoch": 87832,
        "meta_bstar": 0.0016666044,
        "meta_mean_motion_dot": 6.185e-05,
        "meta_mean_motion_ddot": 0,
        "tle_line1": "1 34046U 93036JH  25347.15764223  .00006185  00000+0  16666-2 0  9995",
        "tle_line2": "2 34046  74.0402   9.6927 0074469  92.9866 328.8290 14.46478687878324"
      },
      "geometry": {
        "type": "Point",
        "coordinates": [
          162.76774628887551,
          56.49636855878886
        ]
      }
    },
    {
      "type": "Feature",
      "properties": {
        "norad_id": 34050,
        "name": "COSMOS 2251 DEB",
        "group": "cosmos-2251-debris",
        "lat": 23.702182613479888,
        "lon": -179.06367145417258,
        "alt_km": 883.8319775645341,
        "timestamp": "2025-12-13T20:38:51.401351+00:00",
        "meta_object_name": "COSMOS 2251 DEB",
        "meta_object_id": "1993-036JM",
        "meta_epoch": "2025-12-13T07:58:17.393664",
        "meta_mean_motion": 13.96183364,
        "meta_eccentricity": 0.02145496,
        "meta_inclination": 74.0883,
        "meta_ra_of_asc_node": 9.0361,
        "meta_arg_of_pericenter": 73.1983,
        "meta_mean_anomaly": 305.863,
        "meta_ephemeris_type": 0,
        "meta_classification_type": "U",
        "meta_norad_cat_id": 34050,
        "meta_element_set_no": 999,
        "meta_rev_at_epoch": 85440,
        "meta_bstar": 0.00080732779,
        "meta_mean_motion_dot": 1.325e-05,
        "meta_mean_motion_ddot": 0,
        "tle_line1": "1 34050U 93036JM  25347.33214576  .00001325  00000+0  80733-3 0  9999",
        "tle_line2": "2 34050  74.0883   9.0361 0214549  73.1983 305.8630 13.96183364854409"
      },
      "geometry": {
        "type": "Point",
        "coordinates": [
          -179.06367145417258,
          23.702182613479888
        ]
      }
    },
    {
      "type": "Feature",
      "properties": {
        "norad_id": 34053,
        "name": "COSMOS 2251 DEB",
        "group": "cosmos-2251-debris",
        "lat": -63.61026031079951,
        "lon": -155.37982551479644,
        "alt_km": 1110.332366655939,
        "timestamp": "2025-12-13T20:38:51.401361+00:00",
        "meta_object_name": "COSMOS 2251 DEB",
        "meta_object_id": "1993-036JQ",
        "meta_epoch": "2025-12-12T18:17:00.097152",
        "meta_mean_motion": 13.49161453,
        "meta_eccentricity": 0.04222221,
        "meta_inclination": 73.8441,
        "meta_ra_of_asc_node": 242.1358,
        "meta_arg_of_pericenter": 30.6806,
        "meta_mean_anomaly": 331.8265,
        "meta_ephemeris_type": 0,
        "meta_classification_type": "U",
        "meta_norad_cat_id": 34053,
        "meta_element_set_no": 999,
        "meta_rev_at_epoch": 82684,
        "meta_bstar": 0.0010707402,
        "meta_mean_motion_dot": 1.146e-05,
        "meta_mean_motion_ddot": 0,
        "tle_line1": "1 34053U 93036JQ  25346.76180668  .00001146  00000+0  10707-2 0  9996",
        "tle_line2": "2 34053  73.8441 242.1358 0422222  30.6806 331.8265 13.49161453826849"
      },
      "geometry": {
        "type": "Point",
        "coordinates": [
          -155.37982551479644,
          -63.61026031079951
        ]
      }
    }
  ]
}